ALOS (DAICHI)           
1 28931U 06002A   25339.27333577  .00003082  00000+0  52868-3 0  9994
2 28931  98.1079 290.8137 0000815 108.9211 251.2083 14.69451676 59616
H-2A R/B                
1 28932U 06002B   25339.31924310  .00018632  00000+0  98217-3 0  9996
2 28932  98.2318 113.4633 0054488 201.5659 158.3276 15.14337206 80142
RESURS-DK 1             
1 29228U 06021A   25338.82611925  .00005981  00000+0  35246-3 0  9992
2 29228  69.9333 122.2869 0007840 264.5518  95.4754 15.12091042 73186
CZ-4B R/B               
1 29507U 06046C   25339.11157947  .00010271  00000+0  53452-3 0  9998
2 29507  97.5741  19.2712 0032816 233.7226 126.0974 15.15754560 45710
CZ-2C R/B               
1 31114U 07010B   25339.32116803  .00000342  00000+0  17644-3 0  9997
2 31114  98.3974  92.3454 0058583 207.6774 152.1282 14.20205097966328
COSMO-SKYMED 1          
1 31598U 07023A   25339.29553169  .00006341  00000+0  57502-3 0  9995
2 31598  97.8835 164.6465 0001264  78.7019 281.4344 14.95681096   796
COSMOS 2428             
1 31792U 07029A   25339.30458840  .00000086  00000+0  72107-4 0  9998
2 31792  70.9372  41.4906 0003244  34.2717 325.8612 14.12887543950760
SL-16 R/B               
1 31793U 07029B   25339.32248083 -.00000181  00000+0 -69161-4 0  9991
2 31793  70.9767  10.7501 0002402 265.0835 173.2828 14.14815798952029
KORONAS-FOTON           
1 33504U 09003A   25339.15730990  .00018600  00000+0  44954-3 0  9996
2 33504  82.4313  13.9616 0012840 132.6729 227.5601 15.40938526931176
CZ-2C R/B               
1 37731U 11030B   25339.31505623  .00003406  00000+0  43804-3 0  9997
2 37731  97.8401 293.5864 0051660 298.4909 222.3968 14.80862290776123
H-2A R/B                
1 38341U 12025E   25338.93967556  .00006779  00000+0  62425-3 0  9990
2 38341  98.4583 293.5688 0043923 262.6251  96.9975 14.94365013734065
SHIJIAN-16 (SJ-16)      
1 39358U 13057A   25339.29323152  .00002282  00000+0  22757-3 0  9992
2 39358  74.9734   3.7440 0017445 337.3673  22.6743 14.91956388657427
SL-4 R/B                
1 39679U 14021B   25339.26647002  .00021979  00000+0  51980-3 0  9994
2 39679  51.6089  76.9058 0102389 119.2625 241.8640 15.36395447641743
ALOS-2                  
1 39766U 14029A   25339.30337437  .00003583  00000+0  48658-3 0  9991
2 39766  97.9238  74.2558 0001485 106.6429 253.4946 14.79456881622914
YAOGAN-29               
1 41038U 15069A   25339.32960559  .00000958  00000+0  12497-3 0  9995
2 41038  98.0226   2.4773 0000614   0.4437 359.6777 14.82870076541891
ASTRO-H (HITOMI)        
1 41337U 16012A   25338.09288697  .00006332  00000+0  38189-3 0  9993
2 41337  30.9999 253.1139 0009461  91.0212 269.1510 15.09266666537778
HXMT (HUIYAN)           
1 42758U 17034A   25339.28071200  .00007522  00000+0  38959-3 0  9995
2 42758  43.0117 181.0185 0032595 355.6181   4.4377 15.16157179468209
CZ-2C R/B               
1 43521U 18054D   25338.10350592  .00151724  00000+0  10936-2 0  9999
2 43521  35.1338 239.3732 0017164  52.5099 307.7191 15.71910345413695
SAOCOM 1A               
1 43641U 18076A   25339.24573112  .00000959  00000+0  12696-3 0  9996
2 43641  97.8846 163.7772 0001555  85.5074 274.6317 14.82165051387371
H-2A R/B                
1 43682U 18084L   25339.27165488  .00030009  00000+0  81957-3 0  9991
2 43682  98.8774 171.8048 0027984 352.2092   7.8709 15.36976001391259
SAOCOM 1B               
1 46265U 20059A   25339.27698366  .00000971  00000+0  12850-3 0  9993
2 46265  97.8843 162.9090 0001267  87.6632 272.4727 14.82147287284761
CSS (TIANHE)            
1 48274U 21035A   25339.28337955  .00034071  00000+0  43162-3 0  9993
2 48274  41.4682  61.9587 0009834 333.0075  27.0251 15.58716050262862
COSMOS 2550             
1 48865U 21056A   25339.55321757 -.00000194  00000+0 -54960-7 0  9998
2 48865  67.1428 325.6713 0008394 269.9188  90.1005 15.33827034249023
CZ-2C R/B               
1 52794U 22058K   25339.32047493  .00042815  00000+0  77538-3 0  9990
2 52794  50.1910  81.3709 0046217 167.8364 192.3731 15.47977537195486
CZ-2C R/B               
1 54039U 22132E   25339.26798000  .00052074  00000+0  78997-3 0  9995
2 54039  97.2940 335.3273 0023767  81.4335 278.9611 15.54119878175678
GSLV R/B                
1 54149U 22138AN  25339.09704089  .00006318  00000+0  55698-3 0  9991
2 54149  87.3833 198.0329 0023433 130.7823 229.5447 14.96072359169788
XRISM                   
1 57800U 23137A   25339.23384715  .00007458  00000+0  43905-3 0  9998
2 57800  30.9994 174.0031 0007683 170.0652 190.0139 15.10228509123492
ACS3                    
1 59588U 24077B   25338.80840008  .00024642  00000+0  21306-1 0  9994
2 59588  97.2747 296.1857 0077263 354.7889   5.2460 13.84865597 81046
