OBJECT_NAME,OBJECT_ID,EPOCH,MEAN_MOTION,ECCENTRICITY,INCLINATION,RA_OF_ASC_NODE,ARG_OF_PERICENTER,MEAN_ANOMALY,EPHEMERIS_TYPE,CLASSIFICATION_TYPE,NORAD_CAT_ID,ELEMENT_SET_NO,REV_AT_EPOCH,BSTAR,MEAN_MOTION_DOT,MEAN_MOTION_DDOT
ALOS (DAICHI),2006-002A,2025-12-05T06:33:36.210528,14.69451676,.00008156,98.1079,290.8137,108.9211,251.2083,0,U,28931,999,5961,.52867929E-3,.3082E-4,0
H-2A R/B,2006-002B,2025-12-05T07:39:42.603840,15.14337206,.00544889,98.2318,113.4633,201.5659,158.3276,0,U,28932,999,8014,.98216906E-3,.18632E-3,0
RESURS-DK 1,2006-021A,2025-12-04T19:49:36.703200,15.12091042,.00078405,69.9333,122.2869,264.5518,95.4754,0,U,29228,999,7318,.35246267E-3,.5981E-4,0
CZ-4B R/B,2006-046C,2025-12-05T02:40:40.466208,15.15754560,.00328161,97.5741,19.2712,233.7226,126.0974,0,U,29507,999,4571,.53452352E-3,.10271E-3,0
CZ-2C R/B,2007-010B,2025-12-05T07:42:28.917792,14.20205097,.00585838,98.3974,92.3454,207.6774,152.1282,0,U,31114,999,96632,.1764382E-3,.342E-5,0
COSMO-SKYMED 1,2007-023A,2025-12-05T07:05:33.938016,14.95681096,.00012645,97.8835,164.6465,78.7019,281.4344,0,U,31598,999,79,.57502213E-3,.6341E-4,0
COSMOS 2428,2007-029A,2025-12-05T07:18:36.437760,14.12887543,.00032441,70.9372,41.4906,34.2717,325.8612,0,U,31792,999,95076,.72106679E-4,.86E-6,0
SL-16 R/B,2007-029B,2025-12-05T07:44:22.343712,14.14815798,.00024026,70.9767,10.7501,265.0835,173.2828,0,U,31793,999,95202,-.69161397E-4,-.181E-5,0
KORONAS-FOTON,2009-003A,2025-12-05T03:46:31.575360,15.40938526,.001284,82.4313,13.9616,132.6729,227.5601,0,U,33504,999,93117,.44954382E-3,.186E-3,0
CZ-2C R/B,2011-030B,2025-12-05T07:33:40.858272,14.80862290,.00516603,97.8401,293.5864,298.4909,222.3968,0,U,37731,999,77612,.43804207E-3,.3406E-4,0
H-2A R/B,2012-025E,2025-12-04T22:33:07.968384,14.94365013,.0043923,98.4583,293.5688,262.6251,96.9975,0,U,38341,999,73406,.62425E-3,.6779E-4,0
SHIJIAN-16 (SJ-16),2013-057A,2025-12-05T07:02:15.203328,14.91956388,.00174456,74.9734,3.7440,337.3673,22.6743,0,U,39358,999,65742,.2275724E-3,.2282E-4,0
SL-4 R/B,2014-021B,2025-12-05T06:23:43.009728,15.36395447,.0102389,51.6089,76.9058,119.2625,241.8640,0,U,39679,999,64174,.51979863E-3,.21979E-3,0
ALOS-2,2014-029A,2025-12-05T07:16:51.545568,14.79456881,.00014854,97.9238,74.2558,106.6429,253.4946,0,U,39766,999,62291,.48657938E-3,.3583E-4,0
YAOGAN-29,2015-069A,2025-12-05T07:54:37.922976,14.82870076,.00006147,98.0226,2.4773,0.4437,359.6777,0,U,41038,999,54189,.12497488E-3,.958E-5,0
ASTRO-H (HITOMI),2016-012A,2025-12-04T02:13:45.434208,15.09266666,.00094613,30.9999,253.1139,91.0212,269.1510,0,U,41337,999,53777,.3818886E-3,.6332E-4,0
HXMT (HUIYAN),2017-034A,2025-12-05T06:44:13.516800,15.16157179,.00325954,43.0117,181.0185,355.6181,4.4377,0,U,42758,999,46820,.38959382E-3,.7522E-4,0
CZ-2C R/B,2018-054D,2025-12-04T02:29:02.911488,15.71910345,.00171646,35.1338,239.3732,52.5099,307.7191,0,U,43521,999,41369,.10935966E-2,.151724E-2,0
SAOCOM 1A,2018-076A,2025-12-05T05:53:51.168768,14.82165051,.00015556,97.8846,163.7772,85.5074,274.6317,0,U,43641,999,38737,.12696337E-3,.959E-5,0
H-2A R/B,2018-084L,2025-12-05T06:31:10.981632,15.36976001,.00279841,98.8774,171.8048,352.2092,7.8709,0,U,43682,999,39125,.81957382E-3,.30009E-3,0
SAOCOM 1B,2020-059A,2025-12-05T06:38:51.388224,14.82147287,.00012679,97.8843,162.9090,87.6632,272.4727,0,U,46265,999,28476,.12850095E-3,.971E-5,0
CSS (TIANHE),2021-035A,2025-12-05T06:48:03.993120,15.58716050,.00098342,41.4682,61.9587,333.0075,27.0251,0,U,48274,999,26286,.43162186E-3,.34071E-3,0
COSMOS 2550,2021-056A,2025-12-05T13:16:37.998048,15.33827034,.0008394,67.1428,325.6713,269.9188,90.1005,0,U,48865,999,24902,-.5496E-7,-.194E-5,0
CZ-2C R/B,2022-058K,2025-12-05T07:41:29.033952,15.47977537,.00462178,50.1910,81.3709,167.8364,192.3731,0,U,52794,999,19548,.7753762E-3,.42815E-3,0
CZ-2C R/B,2022-132E,2025-12-05T06:25:53.472000,15.54119878,.00237672,97.2940,335.3273,81.4335,278.9611,0,U,54039,999,17567,.78997053E-3,.52074E-3,0
GSLV R/B,2022-138AN,2025-12-05T02:19:44.332896,14.96072359,.00234333,87.3833,198.0329,130.7823,229.5447,0,U,54149,999,16978,.5569766E-3,.6318E-4,0
XRISM,2023-137A,2025-12-05T05:36:44.393760,15.10228509,.00076839,30.9994,174.0031,170.0652,190.0139,0,U,57800,999,12349,.43904949E-3,.7458E-4,0
ACS3,2024-077B,2025-12-04T19:24:05.766912,13.84865597,.00772631,97.2747,296.1857,354.7889,5.2460,0,U,59588,999,8104,.21305614E-1,.24642E-3,0
